{"version": 0.6, "generator": "Overpass API 0.7.62.1 084b4234", "osm3s": {"timestamp_osm_base": "2024-05-04T13:51:42Z", "copyright": "The data included in this document is from www.openstreetmap.org. The data is made available under ODbL."}, "elements": [{"type": "node", "id": 260261051, "lat": 34.0321438, "lon": -5.0042955}, {"type": "node", "id": 260261052, "lat": 34.0338672, "lon": -5.0033478}, {"type": "node", "id": 260261371, "lat": 34.0319253, "lon": -5.0043692}, {"type": "node", "id": 262472277, "lat": 34.0692166, "lon": -4.9741942, "tags": {"addr:city": "F\u00e8s", "addr:city:ar": "\u0641\u0627\u0633", "addr:city:es": "Fez", "addr:city:fr": "F\u00e8s", "addr:district": "F\u00e8s", "addr:district:ar": "\u0641\u0627\u0633", "addr:district:es": "Fez", "addr:district:fr": "F\u00e8s", "name": "Palais Jamai", "stars": "5", "tourism": "hotel"}}, {"type": "node", "id": 549309837, "lat": 34.0697753, "lon": -4.9816691, "tags": {"entrance": "main"}}, {"type": "node", "id": 1139007346, "lat": 34.0363086, "lon": -4.9967841, "tags": {"addr:city": "F\u00e8s", "addr:country": "MA", "addr:housenumber": "60", "addr:street": "Bd Zerktouni", "email": "hotel.mounia.fes@menara.ma", "name": "H\u00f4tel Mounia", "phone": "212(0) 55.62.48.38", "tourism": "hotel", "website": "https://www.hotelmouniafes.ma/", "wheelchair": "yes"}}, {"type": "node", "id": 1313830498, "lat": 34.0352784, "lon": -5.0034243, "tags": {"addr:city": "F\u00e8s", "addr:city:ar": "\u0641\u0627\u0633", "addr:city:es": "Fez", "addr:city:fr": "F\u00e8s", "addr:district": "F\u00e8s", "addr:district:ar": "\u0641\u0627\u0633", "addr:district:es": "Fez", "addr:district:fr": "F\u00e8s", "name": "H\u00f4tel Volubilis", "name:fr": "H\u00f4tel Volubilis", "stars": "4", "tourism": "hotel"}}, {"type": "node", "id": 1687718667, "lat": 34.0430735, "lon": -5.0011278, "tags": {"addr:city": "F\u00e8s", "addr:city:ar": "\u0641\u0627\u0633", "addr:city:es": "Fez", "addr:city:fr": "F\u00e8s", "addr:district": "F\u00e8s", "addr:district:ar": "\u0641\u0627\u0633", "addr:district:es": "Fez", "addr:district:fr": "F\u00e8s", "internet_access": "no", "name": "Hotel Royal", "tourism": "hotel", "wheelchair": "limited"}}, {"type": "node", "id": 1700815076, "lat": 34.0617972, "lon": -4.9837364, "tags": {"addr:city": "Fes M\u00e9dina, Bab Boujloud", "addr:housenumber": "26", "addr:street": "Rue Tal\u00e2a Saghira", "name": "Hotel Cascade", "phone": "+212 35638442", "tourism": "hotel"}}, {"type": "node", "id": 1827544572, "lat": 34.0364241, "lon": -5.0042342}, {"type": "node", "id": 1827544576, "lat": 34.0365298, "lon": -5.0048071}, {"type": "node", "id": 1827544580, "lat": 34.0369582, "lon": -5.0036127}, {"type": "node", "id": 1827544586, "lat": 34.0367619, "lon": -5.0036894}, {"type": "node", "id": 1827544588, "lat": 34.0372796, "lon": -5.0039579}, {"type": "node", "id": 1827544594, "lat": 34.0370736, "lon": -5.0038304}, {"type": "node", "id": 1827544596, "lat": 34.0375366, "lon": -5.0046888}, {"type": "node", "id": 1827544598, "lat": 34.0365445, "lon": -5.0048349}, {"type": "node", "id": 1827544604, "lat": 34.0371869, "lon": -5.0040294}, {"type": "node", "id": 1827544606, "lat": 34.0371718, "lon": -5.0037545}, {"type": "node", "id": 1827544610, "lat": 34.0362491, "lon": -5.0042234}, {"type": "node", "id": 1827544613, "lat": 34.0361834, "lon": -5.0042742}, {"type": "node", "id": 1827544619, "lat": 34.0368067, "lon": -5.0039388}, {"type": "node", "id": 1827544622, "lat": 34.0367901, "lon": -5.0037425}, {"type": "node", "id": 1827544625, "lat": 34.0361972, "lon": -5.0041255}, {"type": "node", "id": 1827544634, "lat": 34.0364846, "lon": -5.004842}, {"type": "node", "id": 1827544646, "lat": 34.0373009, "lon": -5.0048708}, {"type": "node", "id": 1851617363, "lat": 34.0471702, "lon": -5.0047177}, {"type": "node", "id": 1851617405, "lat": 34.0462376, "lon": -5.0036717}, {"type": "node", "id": 1851617464, "lat": 34.0468737, "lon": -5.0046009}, {"type": "node", "id": 1851617497, "lat": 34.0465512, "lon": -5.0036015}, {"type": "node", "id": 1851617509, "lat": 34.0463989, "lon": -5.004396}, {"type": "node", "id": 1866482864, "lat": 34.0417077, "lon": -4.9946752, "tags": {"addr:city": "F\u00e8s", "addr:city:ar": "\u0641\u0627\u0633", "addr:city:es": "Fez", "addr:city:fr": "F\u00e8s", "addr:district": "F\u00e8s", "addr:district:ar": "\u0641\u0627\u0633", "addr:district:es": "Fez", "addr:district:fr": "F\u00e8s", "addr:housenumber": "10", "addr:postcode": "30000", "addr:street": "Rue Mohammed Diouri, , Maroc", "description": "Occupant un immeuble moderne aux touches mauresques, cet h\u00f4tel haut de gamme est situ\u00e9 \u00e0 5 minutes \u00e0 pied du centre commercial Borj Fez, \u00e0 3 km de la M\u00e9dersa Bou 'Inania, qui date du XIVe si\u00e8cle, et \u00e0 5 km des tombeaux m\u00e9rinides.Dot\u00e9es d'une ambiance", "name": "Menzeh Zalagh", "phone": "+212 5359-32234", "smoking": "outside", "stars": "3", "tourism": "hotel"}}, {"type": "node", "id": 1976914922, "lat": 34.0312086, "lon": -5.0030435}, {"type": "node", "id": 1976914924, "lat": 34.0312442, "lon": -5.002578}, {"type": "node", "id": 1976914934, "lat": 34.0314193, "lon": -5.0025976}, {"type": "node", "id": 1976914935, "lat": 34.0314582, "lon": -5.0022143}, {"type": "node", "id": 1976914936, "lat": 34.0315003, "lon": -5.0033055}, {"type": "node", "id": 1976914948, "lat": 34.0317725, "lon": -5.0031569}, {"type": "node", "id": 1976914954, "lat": 34.031792, "lon": -5.0029613}, {"type": "node", "id": 1976914960, "lat": 34.0318471, "lon": -5.0030083}, {"type": "node", "id": 1976914964, "lat": 34.0319022, "lon": -5.0029691}, {"type": "node", "id": 1976914968, "lat": 34.0319897, "lon": -5.0031491}, {"type": "node", "id": 1976914972, "lat": 34.0320124, "lon": -5.0030669}, {"type": "node", "id": 1976914973, "lat": 34.0321064, "lon": -5.0032546}, {"type": "node", "id": 1976914975, "lat": 34.0321907, "lon": -5.0032273}, {"type": "node", "id": 1976914983, "lat": 34.0322976, "lon": -5.0033602}, {"type": "node", "id": 1976914989, "lat": 34.0324986, "lon": -5.003282}, {"type": "node", "id": 1976914991, "lat": 34.0325115, "lon": -5.0030747}, {"type": "node", "id": 1976915097, "lat": 34.0436828, "lon": -5.0051703}, {"type": "node", "id": 1976915107, "lat": 34.0437848, "lon": -5.0050915}, {"type": "node", "id": 1976915109, "lat": 34.043793, "lon": -5.005378}, {"type": "node", "id": 1976915113, "lat": 34.043895, "lon": -5.0052992}, {"type": "node", "id": 2139294873, "lat": 34.052244, "lon": -5.0323491, "tags": {"addr:city": "fez", "name": "Hotel Zalagh Parc Palace", "tourism": "hotel"}}, {"type": "node", "id": 2312523487, "lat": 34.0580549, "lon": -4.9836516, "tags": {"addr:city": "Municipalit\u00e9 de M\u00e9chouar F\u00e8s Jdid \u0627\u0644\u0645\u0634\u0648\u0631 \u0641\u0627\u0633 \u0627\u0644\u062c\u062f\u064a\u062f", "name": "Campini", "tourism": "hotel"}}, {"type": "node", "id": 2312523586, "lat": 34.0404036, "lon": -5.0019849, "tags": {"addr:city": "F\u00e9s rue arabie saoudite", "internet_access": "yes", "internet_access:fee": "yes", "name": "Hotel sofia", "rooms": "20", "smoking": "outside", "stars": "4", "tourism": "hotel"}}, {"type": "node", "id": 2523256311, "lat": 34.0676474, "lon": -4.9722382, "tags": {"addr:city": "F\u00e8s", "addr:city:ar": "\u0641\u0627\u0633", "addr:city:es": "Fez", "addr:city:fr": "F\u00e8s", "addr:district": "F\u00e8s", "addr:district:ar": "\u0641\u0627\u0633", "addr:district:es": "Fez", "addr:district:fr": "F\u00e8s", "addr:housename": "H\u00f4tel TIJANI", "addr:housenumber": "8", "addr:postcode": "30110", "addr:street": "Oued Zhoun", "name": "H\u00f4tel Tijani", "phone": "00212535637985", "tourism": "hotel", "website": "www.hoteltijani.com"}}, {"type": "node", "id": 2847372306, "lat": 34.0612879, "lon": -4.9837741, "tags": {"addr:city": "F\u00e8s \u2d3c\u2d30\u2d59 \u0641\u0627\u0633", "name": "Hotel Bab Boujloud", "tourism": "hotel"}}, {"type": "node", "id": 2952695752, "lat": 34.0574076, "lon": -4.9761393, "tags": {"addr:city": "F\u00e8s", "addr:city:ar": "\u0641\u0627\u0633", "addr:city:es": "Fez", "addr:city:fr": "F\u00e8s", "addr:district": "F\u00e8s", "addr:district:ar": "\u0641\u0627\u0633", "addr:district:es": "Fez", "addr:district:fr": "F\u00e8s", "addr:housenumber": "16-18", "addr:postcode": "30000", "addr:street": "Quartier Ziat, Derb Bensouda", "designation": "Maison de Charme", "email": "sales@palaisfaraj.com", "internet_access": "yes", "name": "Palais Faraj", "phone": "+212 535 63 53 56", "source": "http://www.palaisfaraj.com", "stars": "5", "tourism": "hotel"}}, {"type": "node", "id": 2952711439, "lat": 34.0601753, "lon": -4.9819166, "tags": {"addr:city": "Fes M\u00e9dina", "designation": "2++", "name": "H\u00f4tel Batha", "tourism": "hotel"}}, {"type": "node", "id": 2952718684, "lat": 34.0397431, "lon": -4.9985678, "tags": {"designation": "2++", "name": "Hotel Olympic", "tourism": "hotel"}}, {"type": "node", "id": 2952722611, "lat": 34.0427436, "lon": -4.9989594, "tags": {"addr:city": "F\u00e8s", "designation": "2++", "name": "Hotel de la Paix", "tourism": "hotel"}}, {"type": "node", "id": 2952725103, "lat": 34.0388052, "lon": -4.9975324, "tags": {"designation": "3+++", "name": "Grand H\u00f4tel", "tourism": "hotel"}}, {"type": "node", "id": 3217569208, "lat": 34.0328624, "lon": -4.9934725, "tags": {"addr:city": "F\u00e8s", "addr:city:ar": "\u0641\u0627\u0633", "addr:city:es": "Fez", "addr:city:fr": "F\u00e8s", "addr:district": "F\u00e8s", "addr:district:ar": "\u0641\u0627\u0633", "addr:district:es": "Fez", "addr:district:fr": "F\u00e8s", "addr:housenumber": "7", "addr:postcode": "30000", "addr:street": "Rue Hassan Dkhissi", "name": "Nouzha", "note": "Very noisy", "tourism": "hotel"}}, {"type": "node", "id": 3217569212, "lat": 34.04765, "lon": -4.9929539, "tags": {"addr:city": "Municipalit\u00e9 de M\u00e9chouar F\u00e8s Jdid \u0627\u0644\u0645\u0634\u0648\u0631 \u0641\u0627\u0633 \u0627\u0644\u062c\u062f\u064a\u062f", "brand": "palais", "internet_access": "wlan", "internet_access:fee": "no", "name": "Palais Medina Spa", "note": "Luxury hotel and spa", "operator": "HR", "tourism": "hotel", "website": "https://palais-medina-fes-spa.hotel-rn.com/"}}, {"type": "node", "id": 3798683606, "lat": 34.0015835, "lon": -4.9513056}, {"type": "node", "id": 3798683615, "lat": 34.0016464, "lon": -4.9512063}, {"type": "node", "id": 3798683620, "lat": 34.0017287, "lon": -4.9512821}, {"type": "node", "id": 3798683621, "lat": 34.0017467, "lon": -4.9514559}, {"type": "node", "id": 3798683624, "lat": 34.0018005, "lon": -4.9509517}, {"type": "node", "id": 3798683625, "lat": 34.0018198, "lon": -4.9513403}, {"type": "node", "id": 3798683626, "lat": 34.0018321, "lon": -4.9513516}, {"type": "node", "id": 3798683627, "lat": 34.0018669, "lon": -4.9508467}, {"type": "node", "id": 3798683628, "lat": 34.0018872, "lon": -4.9510315}, {"type": "node", "id": 3798683630, "lat": 34.0019145, "lon": -4.951187}, {"type": "node", "id": 3798683631, "lat": 34.0019282, "lon": -4.9511997}, {"type": "node", "id": 3798683638, "lat": 34.0020331, "lon": -4.9509997}, {"type": "node", "id": 3919978432, "lat": 34.0611614, "lon": -4.9713122, "tags": {"name": "La Maison Verte", "tourism": "hotel"}}, {"type": "node", "id": 3971607584, "lat": 34.0323372, "lon": -5.004178}, {"type": "node", "id": 3971607619, "lat": 34.0337983, "lon": -5.0033852}, {"type": "node", "id": 3971607792, "lat": 34.0365073, "lon": -5.0048245}, {"type": "node", "id": 3971643437, "lat": 34.0314771, "lon": -5.0038942}, {"type": "node", "id": 3971643902, "lat": 34.0314057, "lon": -5.0037174}, {"type": "node", "id": 3971643929, "lat": 34.0314409, "lon": -5.0036763}, {"type": "node", "id": 3971644079, "lat": 34.0314259, "lon": -5.0038303}, {"type": "node", "id": 3971644154, "lat": 34.0314975, "lon": -5.0037469}, {"type": "node", "id": 3971644164, "lat": 34.0314342, "lon": -5.0039442}, {"type": "node", "id": 3971644211, "lat": 34.0313401, "lon": -5.0036355}, {"type": "node", "id": 4519452391, "lat": 34.0433479, "lon": -4.9960802, "tags": {"internet_access": "wlan", "name": "Menzeh Zalagh", "tourism": "hotel"}}, {"type": "node", "id": 4575830192, "lat": 34.0640972, "lon": -4.9728407, "tags": {"name": "dar seffarine", "name:en": "Snack Restaurant Seffarine", "tourism": "hotel"}}, {"type": "node", "id": 4690220691, "lat": 34.0627957, "lon": -4.97723, "tags": {"addr:city": "Fes M\u00e9dina", "internet_access": "wlan", "name": "Maison famille Tazi", "tourism": "hotel"}}, {"type": "node", "id": 4711934594, "lat": 34.0389629, "lon": -5.0026432, "tags": {"addr:street": "Avenue Hassan II", "name": "Hotel Wassim", "name:fr": "Hotel Wassim", "tourism": "hotel"}}, {"type": "node", "id": 4713135612, "lat": 34.0413468, "lon": -5.0012068, "tags": {"addr:city": "F\u00e9s", "addr:street": "Rue d'Arabie Saoudite", "name": "H\u00f4tel Amour", "tourism": "hotel"}}, {"type": "node", "id": 4713135903, "lat": 34.0410281, "lon": -5.0011406, "tags": {"addr:city": "F\u00e9s", "addr:street": "Rue d'Arabie Saoudite", "tourism": "hotel"}}, {"type": "node", "id": 4721996889, "lat": 34.0323136, "lon": -5.0061868, "tags": {"addr:city": "F\u00e8s", "addr:city:ar": "\u0641\u0627\u0633", "addr:city:es": "Fez", "addr:city:fr": "F\u00e8s", "addr:district": "F\u00e8s", "addr:district:ar": "\u0641\u0627\u0633", "addr:district:es": "Fez", "addr:district:fr": "F\u00e8s", "addr:street": "Avenue Allal Ben Abdallah", "name": "Hotel Nous Plazza", "tourism": "hotel"}}, {"type": "node", "id": 4725737193, "lat": 34.0601122, "lon": -4.9750847, "tags": {"addr:city": "Fes Medina", "addr:postcode": "30200", "internet_access": "wlan", "name:en": "Palais Walid", "tourism": "hotel"}}, {"type": "node", "id": 4734066124, "lat": 34.0404394, "lon": -4.9969605, "tags": {"addr:city": "F\u00e8s", "addr:street": "Rue Hassan Zegriti", "name": "Hotel Savoy", "phone": "0535620608", "tourism": "hotel"}}, {"type": "node", "id": 4737924821, "lat": 34.0383304, "lon": -5.005345, "tags": {"addr:street": "Avenue des Forces Arm\u00e9es Royales", "name": "Hotel Zahrat Aljabal", "phone": "+212 535 94 4646", "tourism": "hotel"}}, {"type": "node", "id": 4738032022, "lat": 34.0388811, "lon": -4.9986323, "tags": {"addr:city": "BV MOHAMED 5", "name": "Hotel al Fath", "tourism": "hotel"}}, {"type": "node", "id": 4740133430, "lat": 34.0378501, "lon": -5.0004358, "tags": {"addr:city": "AVE Mohamed slaoui fez", "addr:housenumber": "9", "addr:street": "Abdelkrim El Khattabi", "description": "http://www.booking.com/hotel/ma/ha-tel-splendid.html", "name": "Hotel Splendid", "phone": "0535622148", "tourism": "hotel"}}, {"type": "node", "id": 4759406436, "lat": 34.0379987, "lon": -5.0005085, "tags": {"name": "Hotel splendid", "tourism": "hotel"}}, {"type": "node", "id": 4759619138, "lat": 34.0381979, "lon": -4.9994375, "tags": {"name": "Hotel Renaissance", "tourism": "hotel"}}, {"type": "node", "id": 4763839622, "lat": 34.0396383, "lon": -5.007896, "tags": {"name": "Golden Tulip", "stars": "4", "tourism": "hotel"}}, {"type": "node", "id": 4763970222, "lat": 34.0370835, "lon": -4.9979499, "tags": {"name": "Hotel central", "tourism": "hotel"}}, {"type": "node", "id": 4791281128, "lat": 34.0645047, "lon": -4.9690859, "tags": {"addr:city": "F\u00e8s", "addr:city:ar": "\u0641\u0627\u0633", "addr:city:es": "Fez", "addr:city:fr": "F\u00e8s", "addr:district": "F\u00e8s", "addr:district:ar": "\u0641\u0627\u0633", "addr:district:es": "Fez", "addr:district:fr": "F\u00e8s", "name": "Palais Bahia Riad", "tourism": "hotel"}}, {"type": "node", "id": 4791502624, "lat": 34.0446667, "lon": -5.0046628, "tags": {"addr:housenumber": "15", "addr:street": "Jordani", "name": "H\u00f4tel Perla", "tourism": "hotel"}}, {"type": "node", "id": 4794200005, "lat": 34.0511773, "lon": -5.0360553, "tags": {"addr:city": "F\u00e8s", "addr:street": "Route De Meknes Centre Marjane", "name": "Ibis Budget Fes", "tourism": "hotel"}}, {"type": "node", "id": 4805386421, "lat": 34.0373407, "lon": -4.9990984, "tags": {"addr:street": "Avenue Mohamed es Saoui", "name": "Maghreb H\u00f4tel", "phone": "0535621567", "tourism": "hotel"}}, {"type": "node", "id": 4811038023, "lat": 34.0579597, "lon": -4.9753665, "tags": {"addr:city": "F\u00e8s", "addr:city:ar": "\u0641\u0627\u0633", "addr:city:es": "Fez", "addr:city:fr": "F\u00e8s", "addr:district": "F\u00e8s", "addr:district:ar": "\u0641\u0627\u0633", "addr:district:es": "Fez", "addr:district:fr": "F\u00e8s", "addr:street": "Derb Mokri Ziat", "name": "PalaIS Mokri", "tourism": "hotel"}}, {"type": "node", "id": 4839992821, "lat": 34.0673526, "lon": -4.9736651, "tags": {"addr:city": "FES medina", "name": "le c\u00e8dre d'argent", "name:fr": "le c\u00e8dre d'argent", "tourism": "hotel"}}, {"type": "node", "id": 4840329005, "lat": 34.0675647, "lon": -4.9738224, "tags": {"addr:city": "FES medina", "name": "le c\u00e8dre d'argent", "name:fr": "le c\u00e8dre d'argent", "tourism": "hotel"}}, {"type": "node", "id": 4865324721, "lat": 34.0677824, "lon": -4.9723014, "tags": {"addr:city": "FES medina", "internet_access": "wlan", "name": "tombouktoo", "phone": "212535638758", "tourism": "hotel"}}, {"type": "node", "id": 4869725122, "lat": 34.0370791, "lon": -4.9942756, "tags": {"addr:street": "Rue Omar Al Idrissi", "name": "Dar Alian", "tourism": "hotel"}}, {"type": "node", "id": 4869954721, "lat": 34.0381439, "lon": -5.0050647, "tags": {"addr:city": "f\u00e9s", "addr:housenumber": "7", "addr:street": "Avenue des Forces Arm\u00e9es Royales", "name": "H\u00f4tel l'Escale", "tourism": "hotel", "website": "http://www.hotelescale.ma/"}}, {"type": "node", "id": 4982367121, "lat": 34.0281491, "lon": -4.9915876, "tags": {"addr:street": "Boulevard Moulay Rachid", "name": "Hotel Errabie", "tourism": "hotel"}}, {"type": "node", "id": 5112795126, "lat": 34.032464, "lon": -4.9952554, "tags": {"name": "Hotel Rex", "tourism": "hotel"}}, {"type": "node", "id": 5175528339, "lat": 34.0362197, "lon": -5.004168}, {"type": "node", "id": 5175528718, "lat": 34.0365908, "lon": -5.0047991}, {"type": "node", "id": 5175528719, "lat": 34.0366254, "lon": -5.0047723}, {"type": "node", "id": 5175528720, "lat": 34.0366132, "lon": -5.0047493}, {"type": "node", "id": 5175529121, "lat": 34.0366729, "lon": -5.0047033}, {"type": "node", "id": 5175530464, "lat": 34.0372663, "lon": -5.0041791}, {"type": "node", "id": 5175539221, "lat": 34.0323091, "lon": -5.0006363}, {"type": "node", "id": 5175539222, "lat": 34.0340767, "lon": -5.0031298}, {"type": "node", "id": 5175539249, "lat": 34.0322088, "lon": -5.0027494}, {"type": "node", "id": 5175539250, "lat": 34.0322458, "lon": -5.0026641}, {"type": "node", "id": 5175539251, "lat": 34.0321291, "lon": -5.0025115}, {"type": "node", "id": 5175539252, "lat": 34.0319508, "lon": -5.0026054}, {"type": "node", "id": 5175539253, "lat": 34.0317758, "lon": -5.0024411}, {"type": "node", "id": 5175539254, "lat": 34.0317855, "lon": -5.0023316}, {"type": "node", "id": 5175539255, "lat": 34.0318439, "lon": -5.0023199}, {"type": "node", "id": 5175539256, "lat": 34.0318601, "lon": -5.0021556}, {"type": "node", "id": 5175539257, "lat": 34.0317434, "lon": -5.0020579}, {"type": "node", "id": 5175539258, "lat": 34.0316545, "lon": -5.0021067}, {"type": "node", "id": 5175539275, "lat": 34.0311213, "lon": -5.0018961}, {"type": "node", "id": 5175539276, "lat": 34.0321596, "lon": -5.0032374}, {"type": "node", "id": 5175539287, "lat": 34.0307286, "lon": -5.0023164}, {"type": "node", "id": 5175539294, "lat": 34.0312318, "lon": -5.0027403}, {"type": "node", "id": 5175539295, "lat": 34.0315805, "lon": -5.0032617}, {"type": "node", "id": 5175539302, "lat": 34.0322289, "lon": -5.0042377}, {"type": "node", "id": 5175539303, "lat": 34.0314522, "lon": -5.0044159}, {"type": "node", "id": 5175539304, "lat": 34.0314221, "lon": -5.0040035}, {"type": "node", "id": 5175539305, "lat": 34.0313843, "lon": -5.0036012}, {"type": "node", "id": 5175539306, "lat": 34.0313065, "lon": -5.0034698}, {"type": "node", "id": 5175539307, "lat": 34.0313599, "lon": -5.0034135}, {"type": "node", "id": 5175539308, "lat": 34.0310175, "lon": -5.0029065}, {"type": "node", "id": 5175539309, "lat": 34.030982, "lon": -5.0029494}, {"type": "node", "id": 5175539310, "lat": 34.0307419, "lon": -5.0026034}, {"type": "node", "id": 5175539311, "lat": 34.0306552, "lon": -5.0025444}, {"type": "node", "id": 5175539312, "lat": 34.0306019, "lon": -5.0024425}, {"type": "node", "id": 5176693623, "lat": 34.0465187, "lon": -5.0037998}, {"type": "node", "id": 5176693624, "lat": 34.0461762, "lon": -5.0038989}, {"type": "node", "id": 5176705048, "lat": 34.0467403, "lon": -5.0037006}, {"type": "node", "id": 5176705057, "lat": 34.0473898, "lon": -5.0039777}, {"type": "node", "id": 5187156035, "lat": 34.0463222, "lon": -5.0042248}, {"type": "node", "id": 5194884625, "lat": 34.0132532, "lon": -4.9822382, "tags": {"addr:street": "Avenue My Rachid Route de Sefrou Lotis Hicham Zohor 1", "name": "Caf\u00e9 et H\u00f4tel Narjis", "operator": "Laamimi El Haj", "tourism": "hotel"}}, {"type": "node", "id": 5226343421, "lat": 34.013548, "lon": -5.0037398, "tags": {"addr:street": "Mohammed El Fassi", "name": "Les olivier", "tourism": "hotel"}}, {"type": "node", "id": 5515612198, "lat": 34.0692324, "lon": -4.9820971}, {"type": "node", "id": 5515614331, "lat": 34.0698365, "lon": -4.981234}, {"type": "node", "id": 5515614338, "lat": 34.069689, "lon": -4.981154}, {"type": "node", "id": 5515614443, "lat": 34.0695561, "lon": -4.9815749}, {"type": "node", "id": 5521974989, "lat": 34.0616325, "lon": -4.9744932, "tags": {"addr:city": "F\u00e8s", "addr:city:ar": "\u0641\u0627\u0633", "addr:city:es": "Fez", "addr:city:fr": "F\u00e8s", "addr:district": "F\u00e8s", "addr:district:ar": "\u0641\u0627\u0633", "addr:district:es": "Fez", "addr:district:fr": "F\u00e8s", "name": "Dar R'cif", "source": "hotel website gps", "tourism": "hotel"}}, {"type": "node", "id": 5522195339, "lat": 34.0591888, "lon": -4.9763249, "tags": {"name": "Le Palais Mokri (Dar Mokri)", "tourism": "hotel"}}, {"type": "node", "id": 5527409550, "lat": 34.0583899, "lon": -4.9749298, "tags": {"name": "Le Palais El Mokri", "note": "seems here based on photos", "tourism": "hotel", "website": "https://www.tripadvisor.com.au/Attraction_Review-g293733-d6509825-Reviews-Palais_El_Mokri-Fes_Fes_Boulemane_Region.html"}}, {"type": "node", "id": 5542639045, "lat": 34.0622404, "lon": -4.9811848, "tags": {"addr:city": "Fes M\u00e9dina", "name": "Dar Hodou", "tourism": "hotel"}}, {"type": "node", "id": 5573152207, "lat": 34.0382624, "lon": -5.0053168, "tags": {"addr:city": "rue lala nouzha ville nouvelle fez", "name": "Hotel zahrat al jabal", "tourism": "hotel"}}, {"type": "node", "id": 5582074946, "lat": 34.0627945, "lon": -4.9821303, "tags": {"addr:city": "Fes M\u00e9dina talaa el kbira derb drioucha", "brand": "logement chez l'habitant", "name": "famille Enouina", "tourism": "hotel"}}, {"type": "node", "id": 5582627149, "lat": 34.0618142, "lon": -4.9830748, "tags": {"addr:city": "talaa SGHIRA", "name": "Hotel LAMRANI", "tourism": "hotel"}}, {"type": "node", "id": 5588046988, "lat": 34.0608376, "lon": -4.9844594, "tags": {"addr:city": "fes medina derb bab boujloud", "brand": "maison d'hote", "name": "riad les chirifi", "phone": "06612559074", "tourism": "hotel"}}, {"type": "node", "id": 5588050449, "lat": 34.0608683, "lon": -4.9845586, "tags": {"addr:city": "fes medina derb bab boujloud", "name": "Hotel JARDIN", "tourism": "hotel"}}, {"type": "node", "id": 5592358214, "lat": 34.0648155, "lon": -4.9789054, "tags": {"addr:city": "chrablyine taiaa elkbira fes medina", "name": "maison moi anan", "phone": "0535635713", "tourism": "hotel"}}, {"type": "node", "id": 5717539763, "lat": 34.0652356, "lon": -4.9778261, "tags": {"addr:city": "n 36 zkak rouah terafine fez medina", "name": "Palais des m\u00e9rinides", "phone": "0535634028", "tourism": "hotel"}}, {"type": "node", "id": 5719956521, "lat": 34.0511836, "lon": -5.0360619, "tags": {"name": "H\u00f4tel Ibis budget", "tourism": "hotel"}}, {"type": "node", "id": 5722833009, "lat": 34.0436358, "lon": -4.9922166, "tags": {"name": "Hotel Sahrai", "phone": "0535940302", "tourism": "hotel"}}, {"type": "node", "id": 5751541672, "lat": 34.0469151, "lon": -5.0043442, "tags": {"addr:city": "ville fez", "name": "Hotel Ibis", "tourism": "hotel"}}, {"type": "node", "id": 6025500186, "lat": 34.0584558, "lon": -4.9782809, "tags": {"name:en": "Road La Perle De La Medina", "tourism": "hotel"}}, {"type": "node", "id": 6225203889, "lat": 34.0580797, "lon": -4.9763147, "tags": {"name": "Messi Elli Asja", "tourism": "hotel"}}, {"type": "node", "id": 6345857750, "lat": 34.0599344, "lon": -4.9800488, "tags": {"addr:city": "Fez", "addr:housenumber": "15", "addr:postcode": "30110", "addr:street": "Derb el Guebbas", "internet_access": "wlan", "name": "Le Grand Alcazar - Riad", "payment:cash": "yes", "payment:mastercard": "yes", "payment:visa": "yes", "rooms": "7", "tourism": "hotel"}}, {"type": "node", "id": 6468043376, "lat": 34.0589883, "lon": -4.9787833, "tags": {"name": "Palais Sheherazade & spa", "tourism": "hotel"}}, {"type": "node", "id": 6485488685, "lat": 34.0671982, "lon": -4.972707, "tags": {"addr:housenumber": "19", "addr:street": "Derb Hassan", "name:es": "apartamento fez", "tourism": "hotel"}}, {"type": "node", "id": 6768823985, "lat": 34.0616948, "lon": -4.9723193, "tags": {"name:en": "Riad Arabella", "tourism": "hotel"}}, {"type": "node", "id": 6975940185, "lat": 34.0596886, "lon": -4.9780884, "tags": {"addr:housenumber": "11", "addr:postcode": "30000", "addr:street": "Rue El-Hamia", "internet_access": "wlan", "name": "Riad Al Assala Fes", "name:en": "Riad Alassala Fes", "opening_hours": "24/7", "tourism": "hotel"}}, {"type": "node", "id": 6984268232, "lat": 34.0633969, "lon": -4.98337, "tags": {"addr:housenumber": "118", "name": "Dar Mayssae", "name:en": "Dar Mayssae vraie localisation", "tourism": "hotel"}}, {"type": "node", "id": 7022052541, "lat": 34.0692198, "lon": -4.9821623}, {"type": "node", "id": 7022052542, "lat": 34.0693273, "lon": -4.9822593}, {"type": "node", "id": 7022052543, "lat": 34.0692502, "lon": -4.9821132}, {"type": "node", "id": 7022052544, "lat": 34.0693577, "lon": -4.9822103}, {"type": "node", "id": 7022052555, "lat": 34.0697699, "lon": -4.9814506}, {"type": "node", "id": 7022052556, "lat": 34.0698602, "lon": -4.9815321}, {"type": "node", "id": 7022052557, "lat": 34.0696151, "lon": -4.9820696}, {"type": "node", "id": 7022052558, "lat": 34.0695587, "lon": -4.9820187}, {"type": "node", "id": 7022052559, "lat": 34.0694668, "lon": -4.9823088}, {"type": "node", "id": 7056879686, "lat": 34.0657899, "lon": -4.9772193, "tags": {"name": "Riad Attajalli", "tourism": "hotel"}}, {"type": "node", "id": 7151192085, "lat": 34.0666384, "lon": -4.9718901, "tags": {"internet_access": "wlan", "name:en": "RIAD TOUAREG", "phone": "+86 182 1046 6610", "tourism": "hotel"}}, {"type": "node", "id": 7199882685, "lat": 34.0643797, "lon": -4.9772331, "tags": {"name": "Dar Rumi", "tourism": "hotel"}}, {"type": "node", "id": 7267425386, "lat": 34.0588067, "lon": -4.9739169, "tags": {"name": "Bab Jdid", "tourism": "hotel"}}, {"type": "node", "id": 8873004117, "lat": 34.0686448, "lon": -4.9696181, "tags": {"internet_access": "wlan", "name": "\u0628\u0627\u0628 \u0627\u0644\u0645\u062f\u064a\u0646\u0629", "name:en": "BAB AL MADINA", "tourism": "hotel"}}, {"type": "node", "id": 9178385718, "lat": 34.059833, "lon": -4.981209, "tags": {"name": "Fes Heritage", "tourism": "hotel"}}, {"type": "node", "id": 9317998515, "lat": 34.0519225, "lon": -4.9928861, "tags": {"addr:city": "F\u00e8s \u2d3c\u2d30\u2d59 \u0641\u0627\u0633", "addr:housenumber": "9", "addr:postcode": "30040", "addr:street": "rue azemmour", "internet_access": "wlan", "internet_access:fee": "no", "name": "H\u00f4tel Glacier", "phone": "+212 535 626 261", "rooms": "16", "tourism": "hotel", "wheelchair": "yes"}}, {"type": "node", "id": 9913167521, "lat": 34.0622338, "lon": -4.9822635, "tags": {"name": "Dar Merzouga", "tourism": "hotel"}}, {"type": "node", "id": 10166301392, "lat": 34.0630462, "lon": -4.9719244, "tags": {"description": "Riad", "internet_access": "wlan", "name": "Riad Fes El Kaid", "tourism": "hotel", "wheelchair": "no"}}, {"type": "node", "id": 10278314510, "lat": 34.058431, "lon": -4.9791733, "tags": {"addr:housenumber": "16", "addr:street": "Derb Beniss", "name:en": "Riad Authentic Palace & Spa", "tourism": "hotel"}}, {"type": "node", "id": 10300081713, "lat": 34.0629412, "lon": -4.9719731, "tags": {"addr:housenumber": "3", "addr:street": "5 DERB BOUZOUBAA GZIRA MEDIN ET", "name:en": "Riad fes el Kaid", "name:nl": "Riad fes el Kaid", "tourism": "hotel"}}, {"type": "node", "id": 10693026605, "lat": 34.0617394, "lon": -4.9716192, "tags": {"internet_access": "yes", "internet_access:fee": "no", "operator": "Dar Milouda Rcif", "tourism": "hotel"}}, {"type": "node", "id": 10794939007, "lat": 34.0639594, "lon": -4.9806266, "tags": {"name:fr": "riad drissia", "tourism": "hotel"}}, {"type": "node", "id": 10820150508, "lat": 34.0636159, "lon": -4.9835317, "tags": {"name:en": "Riad Sabah", "name:nl": "Riad Sabah", "tourism": "hotel"}}, {"type": "node", "id": 11125734406, "lat": 34.0586237, "lon": -4.978311, "tags": {"addr:housenumber": "18", "addr:postcode": "30110", "addr:street": "Derb Beniss", "internet_access": "wlan", "name": "Riad Salam F\u00e8s", "name:en": "Riad Salam Fes", "phone": "+212535638988", "tourism": "hotel"}}, {"type": "node", "id": 11207364637, "lat": 34.0590456, "lon": -4.971047, "tags": {"addr:street": "Derb Makhfiya", "internet_access": "wlan", "name": "Dar panoramic", "tourism": "hotel"}}, {"type": "node", "id": 11289377469, "lat": 34.057755, "lon": -4.9731315, "tags": {"name:fr": "Riad Hayat", "tourism": "hotel"}}, {"type": "node", "id": 11302968743, "lat": 34.059966, "lon": -4.9718487, "tags": {"name": "Palais de F\u00e8s, Dar Tari", "tourism": "hotel", "website": "https://www.palais-de-fes.com/"}}, {"type": "node", "id": 11309246586, "lat": 34.0599386, "lon": -4.9880517, "tags": {"name": "Jnan sbil", "tourism": "hotel"}}, {"type": "node", "id": 11358386594, "lat": 34.0634059, "lon": -4.9806437, "tags": {"addr:city": "F\u00e8s Medina", "addr:housenumber": "16", "addr:street": "Rhat Shems Tahtia, Talaa Kebira", "description": "Pas trop cher, tr\u00e8s agr\u00e9able.\nNot too expensive, very nice.", "internet_access": "yes", "internet_access:fee": "no", "name": "Riad Dar Barae", "tourism": "hotel"}}, {"type": "node", "id": 11367380492, "lat": 34.0673027, "lon": -4.9719756}, {"type": "node", "id": 11367380493, "lat": 34.0676705, "lon": -4.972083}, {"type": "node", "id": 11367380500, "lat": 34.0675713, "lon": -4.9722669}, {"type": "node", "id": 11367380501, "lat": 34.0672723, "lon": -4.9720319}, {"type": "node", "id": 11367380508, "lat": 34.0673715, "lon": -4.971848}, {"type": "node", "id": 11368889021, "lat": 34.0566179, "lon": -4.9732145, "tags": {"addr:city": "fes medina", "addr:housenumber": "111", "addr:postcode": "30110", "addr:street": "derb Slaoui rue 6 bouajara bab jdid", "internet_access": "wlan", "internet_access:fee": "no", "name": "dar aya fes", "phone": "+212601726937", "tourism": "hotel"}}, {"type": "node", "id": 11630788269, "lat": 34.0631776, "lon": -4.9797855, "tags": {"tourism": "hotel"}}, {"type": "way", "id": 171775997, "nodes": [1827544596, 1827544646, 1827544619, 1827544572, 5175529121, 5175528720, 5175528719, 5175528718, 1827544598, 1827544576, 3971607792, 1827544634, 1827544613, 1827544610, 5175528339, 1827544625, 1827544586, 1827544622, 1827544580, 1827544594, 1827544606, 1827544588, 1827544604, 5175530464, 1827544596], "tags": {"addr:city": "f\u00e9s", "building": "yes", "name": "H\u00f4tel Royal Mirage", "tourism": "hotel"}}, {"type": "way", "id": 174481109, "nodes": [1851617464, 1851617363, 5176705057, 5176705048, 1851617497, 5176693623, 1851617405, 5176693624, 5187156035, 1851617509, 1851617464], "tags": {"addr:city": "\u0641\u0627\u0633", "name": "Ibis F\u00e8s \u0625\u064a\u0628\u0633 \u0641\u0627\u0633", "name:ar": "\u0625\u064a\u0628\u0633 \u0641\u0627\u0633", "name:fr": "Ibis F\u00e8s", "operator": "\u0625\u064a\u0628\u0633", "tourism": "hotel"}}, {"type": "way", "id": 186942859, "nodes": [1976914954, 1976914948, 5175539295, 1976914936, 1976914922, 5175539294, 1976914924, 1976914934, 1976914935, 5175539258, 5175539257, 5175539256, 5175539255, 5175539254, 5175539253, 5175539252, 5175539251, 5175539250, 5175539249, 1976914991, 1976914989, 1976914983, 1976914975, 5175539276, 1976914973, 1976914968, 1976914972, 1976914964, 1976914960, 1976914954], "tags": {"addr:city": "F\u00e8s", "addr:housenumber": "8", "addr:street": "Rue Ahmed Chaouki", "building": "yes", "internet_access": "wlan", "name": "Fes Marriott Hotel Jnan Palace \u0641\u0646\u062f\u0642 \u0645\u0627\u0631\u064a\u0648\u062a", "name:ar": "\u0641\u0646\u062f\u0642 \u0645\u0627\u0631\u064a\u0648\u062a", "name:en": "Fes Marriott Hotel Jnan Palace", "name:fr": "Fes Marriott Hotel Jnane Palace", "tourism": "hotel"}}, {"type": "way", "id": 186942865, "nodes": [1976915113, 1976915107, 1976915097, 1976915109, 1976915113], "tags": {"building": "yes", "name": "Hotel Perla \u0641\u0646\u062f\u0642 \u0628\u064a\u0631\u0644\u0627", "name:ar": "\u0641\u0646\u062f\u0642 \u0628\u064a\u0631\u0644\u0627", "name:fr": "Hotel Perla", "tourism": "hotel"}}, {"type": "way", "id": 376446937, "nodes": [3798683621, 3798683625, 3798683626, 3798683631, 3798683630, 3798683638, 3798683627, 3798683624, 3798683628, 3798683620, 3798683615, 3798683606, 3798683621], "tags": {"building": "yes", "internet_access": "wlan", "internet_access:fee": "no", "name": "Villa Agapanthe", "smoking": "yes", "tourism": "hotel"}}, {"type": "way", "id": 533783967, "nodes": [5175539312, 5175539287, 5175539275, 5175539221, 5175539222, 260261052, 3971607619, 3971607584, 5175539302, 260261051, 260261371, 5175539303, 5175539304, 3971644164, 3971643437, 3971644079, 3971644154, 3971643929, 3971643902, 3971644211, 5175539305, 5175539306, 5175539307, 5175539308, 5175539309, 5175539310, 5175539311, 5175539312], "tags": {"tourism": "hotel"}}, {"type": "way", "id": 574668085, "nodes": [7022052558, 7022052557, 7022052559, 7022052544, 7022052542, 7022052541, 7022052543, 5515612198, 5515614443, 5515614338, 5515614331, 7022052555, 7022052556, 549309837, 7022052558], "tags": {"addr:city": "F\u00e8s", "addr:city:ar": "\u0641\u0627\u0633", "addr:city:es": "Fez", "addr:city:fr": "F\u00e8s", "addr:district": "F\u00e8s", "addr:district:ar": "\u0641\u0627\u0633", "addr:district:es": "Fez", "addr:district:fr": "F\u00e8s", "addr:street": "Avenue des M\u00e9rinides", "building": "hotel", "internet_access": "wlan", "name": "Les Merinides", "phone": "+212 5 35 64 52 26", "stars": "5", "tourism": "hotel", "website": "https://www.lesmerinides.com"}}, {"type": "way", "id": 1225769807, "nodes": [11367380500, 11367380493, 11367380508, 11367380492, 11367380501, 11367380500], "tags": {"building": "yes", "name": "Palais Amani", "tourism": "hotel"}}]}