<?xml version="1.0" encoding="UTF-8"?>
<osm version="0.6" generator="CGImap 0.9.2 (925573 spike-07.openstreetmap.org)" copyright="OpenStreetMap and contributors" attribution="http://www.openstreetmap.org/copyright" license="http://opendatacommons.org/licenses/odbl/1-0/">
 <relation id="2799557" visible="true" version="39" changeset="141191452" timestamp="2023-09-13T06:14:21Z" user="*Martin*" uid="4815">
  <member type="way" ref="190726865" role="inner"/>
  <member type="way" ref="190726847" role="inner"/>
  <member type="way" ref="190726866" role="inner"/>
  <member type="way" ref="208162434" role="outer"/>
  <member type="way" ref="190666119" role="outer"/>
  <member type="way" ref="208162063" role="outer"/>
  <member type="way" ref="190727391" role="outer"/>
  <member type="way" ref="190726854" role="outer"/>
  <member type="way" ref="190726846" role="outer"/>
  <member type="way" ref="190736567" role="outer"/>
  <member type="way" ref="190726857" role="outer"/>
  <member type="way" ref="190736565" role="outer"/>
  <member type="way" ref="190635376" role="outer"/>
  <member type="way" ref="190726849" role="outer"/>
  <member type="way" ref="190726853" role="outer"/>
  <member type="way" ref="190666153" role="outer"/>
  <member type="node" ref="289035432" role="admin_centre"/>
  <tag k="admin_level" v="6"/>
  <tag k="boundary" v="administrative"/>
  <tag k="name" v="Fès ⴼⴰⵙ فاس"/>
  <tag k="name:ar" v="فاس"/>
  <tag k="name:ary" v="فاس"/>
  <tag k="name:arz" v="فاس"/>
  <tag k="name:az-Arab" v="فاس"/>
  <tag k="name:azb" v="فاس"/>
  <tag k="name:ber" v="ⴼⴰⵙ"/>
  <tag k="name:cs" v="Fes"/>
  <tag k="name:de" v="Fès"/>
  <tag k="name:el" v="Φεζ"/>
  <tag k="name:en" v="Fez"/>
  <tag k="name:eo" v="Fez"/>
  <tag k="name:es" v="Fez"/>
  <tag k="name:fa" v="فاس"/>
  <tag k="name:fr" v="Fès"/>
  <tag k="name:gl" v="Fez"/>
  <tag k="name:hu" v="Fez"/>
  <tag k="name:id" v="Fez"/>
  <tag k="name:io" v="Fez"/>
  <tag k="name:is" v="Fez"/>
  <tag k="name:kab-Arab" v="فاس"/>
  <tag k="name:kk-Arab" v="فەس"/>
  <tag k="name:ks" v="فاس"/>
  <tag k="name:li" v="Fez"/>
  <tag k="name:nah" v="Fez"/>
  <tag k="name:nl" v="Fez"/>
  <tag k="name:nn" v="Fez"/>
  <tag k="name:no" v="Fez"/>
  <tag k="name:ota" v="فاس"/>
  <tag k="name:pa-Arab" v="فاس"/>
  <tag k="name:pl" v="Fez"/>
  <tag k="name:pnb" v="فاس"/>
  <tag k="name:pt" v="Fez"/>
  <tag k="name:sk" v="Fez"/>
  <tag k="name:szl" v="Fez"/>
  <tag k="name:ur" v="فاس"/>
  <tag k="name:war" v="Fez"/>
  <tag k="name:zgh" v="ⴼⴰⵙ"/>
  <tag k="network" v="MA:communes"/>
  <tag k="population" v="1091512"/>
  <tag k="population:date" v="2014"/>
  <tag k="type" v="boundary"/>
  <tag k="wikidata" v="Q80985"/>
  <tag k="wikipedia" v="ar:فاس"/>
  <tag k="wikipedia:es" v="Fez"/>
 </relation>
</osm>
